[{"OBJECT_NAME":"STARLINK-32580","OBJECT_ID":"2024-217U","EPOCH":"2026-03-09T12:36:17.560800","MEAN_MOTION":15.30199409,"ECCENTRICITY":6.749e-5,"INCLINATION":53.158,"RA_OF_ASC_NODE":182.0554,"ARG_OF_PERICENTER":76.1585,"MEAN_ANOMALY":283.9491,"EPHEMERIS_TYPE":0,"CLASSIFICATION_TYPE":"U","NORAD_CAT_ID":62075,"ELEMENT_SET_NO":999,"REV_AT_EPOCH":7357,"BSTAR":0.0010673044,"MEAN_MOTION_DOT":0.00031384,"MEAN_MOTION_DDOT":0},{"OBJECT_NAME":"FENGYUN 1C DEB","OBJECT_ID":"1999-025BRA","EPOCH":"2026-03-07T21:38:03.570144","MEAN_MOTION":15.14550758,"ECCENTRICITY":0.01045185,"INCLINATION":98.8762,"RA_OF_ASC_NODE":52.6466,"ARG_OF_PERICENTER":91.2586,"MEAN_ANOMALY":270.0618,"EPHEMERIS_TYPE":0,"CLASSIFICATION_TYPE":"U","NORAD_CAT_ID":31346,"ELEMENT_SET_NO":999,"REV_AT_EPOCH":773,"BSTAR":0.0014203897,"MEAN_MOTION_DOT":0.00030047,"MEAN_MOTION_DDOT":0}]
